NORAD_CAT_ID,OBJECT_NAME,OBJECT_TYPE,EPOCH,MEAN_MOTION,ECCENTRICITY,INCLINATION,RA_OF_ASC_NODE,ARG_OF_PERICENTER,MEAN_ANOMALY,BSTAR,MEAN_MOTION_DOT,MEAN_MOTION_DDOT,TLE_LINE0,TLE_LINE1,TLE_LINE2,SEMIMAJOR_AXIS,PERIOD,APOGEE,PERIGEE,DECAYED
52299.0,STARLINK-3759,PAYLOAD,2023-06-03 10:40:51,15.0883414,9.77e-05,53.2162,314.2839,86.9392,273.1712,0.00015851,2.235e-05,0.0,0 STARLINK-3759,1 52299U 22041AQ  23154.44504040  .00002235  00000-0  15851-3 0  9997,2 52299  53.2162 314.2839 0000977  86.9392 273.1712 15.08834140 61990,6917.898,95.438,540.439,539.087,0.0
52299.0,STARLINK-3759,PAYLOAD,2023-06-03 17:02:23,15.0883493,9.26e-05,53.2171,313.0948,90.0369,270.0729,0.00017536,2.504e-05,0.0,0 STARLINK-3759,1 52299U 22041AQ  23154.70999929  .00002504  00000-0  17536-3 0  9991,2 52299  53.2171 313.0948 0000926  90.0369 270.0729 15.08834930 63254,6917.896,95.438,540.401,539.12,0.0
52299.0,STARLINK-3759,PAYLOAD,2023-06-04 13:42:24,15.08839622,9.93e-05,53.2171,309.2291,85.6601,274.4504,0.00011281,1.508e-05,0.0,0 STARLINK-3759,1 52299U 22041AQ  23155.57111722  .00001508  00000-0  11281-3 0  9998,2 52299  53.2171 309.2291 0000993  85.6601 274.4504 15.08839622 62166,6917.882,95.438,540.433,539.06,0.0
52299.0,STARLINK-3759,PAYLOAD,2023-06-04 16:53:10,15.08844272,0.0001009,53.2171,308.634,88.3966,271.7141,0.00013108,1.799e-05,0.0,0 STARLINK-3759,1 52299U 22041AQ  23155.70359367  .00001799  00000-0  13108-3 0  9994,2 52299  53.2171 308.6340 0001009  88.3966 271.7141 15.08844272 63409,6917.867,95.437,540.43,539.034,0.0
52299.0,STARLINK-3759,PAYLOAD,2023-06-05 13:33:11,15.08835008,8.99e-05,53.2171,304.7688,79.7893,280.32,9.3943e-05,1.208e-05,0.0,0 STARLINK-3759,1 52299U 22041AQ  23156.56472023  .00001208  00000-0  93943-4 0  9995,2 52299  53.2171 304.7688 0000899  79.7893 280.3200 15.08835008 62318,6917.896,95.438,540.383,539.139,0.0
52299.0,STARLINK-3759,PAYLOAD,2023-06-05 16:43:57,15.08842546,9.37e-05,53.2171,304.1733,89.199,270.9109,6.5878e-05,7.61e-06,0.0,0 STARLINK-3759,1 52299U 22041AQ  23156.69719558  .00000761  00000-0  65878-4 0  9995,2 52299  53.2171 304.1733 0000937  89.1990 270.9109 15.08842546 62339,6917.873,95.437,540.386,539.089,0.0
52299.0,STARLINK-3759,PAYLOAD,2023-06-06 10:13:12,15.08836784,9.65e-05,53.217,300.902,92.5024,267.6079,-2.1884e-05,-6.36e-06,0.0,0 STARLINK-3759,1 52299U 22041AQ  23157.42584131 -.00000636  00000-0 -21884-4 0  9996,2 52299  53.2170 300.9020 0000965  92.5024 267.6079 15.08836784 63661,6917.89,95.438,540.423,539.088,0.0
52299.0,STARLINK-3759,PAYLOAD,2023-06-06 11:48:35,15.08835343,9.81e-05,53.2172,300.6058,82.7417,277.3687,1.0439e-05,-1.22e-06,0.0,0 STARLINK-3759,1 52299U 22041AQ  23157.49208164 -.00000122  00000-0  10439-4 0  9995,2 52299  53.2172 300.6058 0000981  82.7417 277.3687 15.08835343 62455,6917.895,95.438,540.438,539.081,0.0
52299.0,STARLINK-3759,PAYLOAD,2023-06-06 16:34:44,15.08839117,9.45e-05,53.2173,299.7132,84.4008,275.7092,4.515e-05,4.31e-06,0.0,0 STARLINK-3759,1 52299U 22041AQ  23157.69079809  .00000431  00000-0  45150-4 0  9999,2 52299  53.2173 299.7132 0000945  84.4008 275.7092 15.08839117 62480,6917.883,95.438,540.402,539.094,0.0
52299.0,STARLINK-3759,PAYLOAD,2023-06-07 10:04:00,15.08829996,9.11e-05,53.2175,296.4425,89.4495,270.6602,5.032e-06,-2.08e-06,0.0,0 STARLINK-3759,1 52299U 22041AQ  23158.41944631 -.00000208  00000-0  50320-5 0  9993,2 52299  53.2175 296.4425 0000911  89.4495 270.6602 15.08829996 62596,6917.911,95.438,540.406,539.146,0.0
52299.0,STARLINK-3759,PAYLOAD,2023-06-07 16:25:32,15.08838293,9.98e-05,53.2186,295.2557,90.4694,269.6412,6.5441e-05,7.54e-06,0.0,0 STARLINK-3759,1 52299U 22041AQ  23158.68440042  .00000754  00000-0  65441-4 0  9993,2 52299  53.2186 295.2557 0000998  90.4694 269.6412 15.08838293 63856,6917.886,95.438,540.441,539.06,0.0
52299.0,STARLINK-3759,PAYLOAD,2023-06-07 19:36:18,15.08840726,0.0001,53.2174,294.6578,84.9447,275.166,3.6687e-05,2.96e-06,0.0,0 STARLINK-3759,1 52299U 22041AQ  23158.81687937  .00000296  00000-0  36687-4 0  9995,2 52299  53.2174 294.6578 0001000  84.9447 275.1660 15.08840726 62656,6917.878,95.438,540.435,539.051,0.0
52299.0,STARLINK-3759,PAYLOAD,2023-06-08 01:57:51,15.08838956,9.46e-05,53.2176,293.4689,85.6599,274.4501,5.4399e-05,5.78e-06,0.0,0 STARLINK-3759,1 52299U 22041AQ  23159.08184028  .00000578  00000-0  54399-4 0  9991,2 52299  53.2176 293.4689 0000946  85.6599 274.4501 15.08838956 62694,6917.884,95.438,540.403,539.094,0.0
52299.0,STARLINK-3759,PAYLOAD,2023-06-08 13:05:33,15.08836088,0.0001043,53.2175,291.3863,75.4374,284.6734,8.0214e-05,9.89e-06,0.0,0 STARLINK-3759,1 52299U 22041AQ  23159.54552283  .00000989  00000-0  80214-4 0  9995,2 52299  53.2175 291.3863 0001043  75.4374 284.6734 15.08836088 62764,6917.892,95.438,540.479,539.036,0.0
52299.0,STARLINK-3759,PAYLOAD,2023-06-08 21:02:28,15.08847309,0.0001153,53.2167,289.8997,86.2614,273.851,0.00011926,1.611e-05,0.0,0 STARLINK-3759,1 52299U 22041AQ  23159.87671450  .00001611  00000-0  11926-3 0  9995,2 52299  53.2167 289.8997 0001153  86.2614 273.8510 15.08847309 64036,6917.858,95.437,540.521,538.925,0.0
52299.0,STARLINK-3759,PAYLOAD,2023-06-09 14:31:42,15.08850303,0.0001028,53.2163,286.6292,82.5916,277.5193,0.00011712,1.577e-05,0.0,0 STARLINK-3759,1 52299U 22041AQ  23160.60535039  .00001577  00000-0  11712-3 0  9994,2 52299  53.2163 286.6292 0001028  82.5916 277.5193 15.08850303 62922,6917.849,95.437,540.425,539.003,0.0
52299.0,STARLINK-3759,PAYLOAD,2023-06-09 16:07:07,15.08837701,0.0001668,53.2174,286.3313,55.6217,304.4933,2.3704e-06,-2.5e-06,0.0,0 STARLINK-3759,1 52299U 22041AQ  23160.67160898 -.00000250  00000-0  23704-5 0  9992,2 52299  53.2174 286.3313 0001668  55.6217 304.4933 15.08837701 62930,6917.887,95.438,540.906,538.599,0.0
52299.0,STARLINK-3759,PAYLOAD,2023-06-10 01:39:25,15.0883944,0.0001202,53.2168,284.5465,90.9387,269.1743,5.5586e-05,5.97e-06,0.0,0 STARLINK-3759,1 52299U 22041AQ  23161.06904402  .00000597  00000-0  55586-4 0  9998,2 52299  53.2168 284.5465 0001202  90.9387 269.1743 15.08839440 64216,6917.882,95.438,540.579,538.916,0.0
52299.0,STARLINK-3759,PAYLOAD,2023-06-10 14:22:30,15.0884228,8.71e-05,53.2167,282.1681,96.6306,263.4785,0.00011421,1.531e-05,0.0,0 STARLINK-3759,1 52299U 22041AQ  23161.59896056  .00001531  00000-0  11421-3 0  9999,2 52299  53.2167 282.1681 0000871  96.6306 263.4785 15.08842280 63076,6917.873,95.437,540.341,539.136,0.0
52299.0,STARLINK-3759,PAYLOAD,2023-06-11 09:27:08,15.08843388,9.17e-05,53.2176,278.6008,94.6906,265.4191,2.9145e-05,1.76e-06,0.0,0 STARLINK-3759,1 52299U 22041AQ  23162.39384345  .00000176  00000-0  29145-4 0  9998,2 52299  53.2176 278.6008 0000917  94.6906 265.4191 15.08843388 64416,6917.87,95.437,540.369,539.101,0.0
52299.0,STARLINK-3759,PAYLOAD,2023-06-11 14:13:17,15.08842463,9.68e-05,53.2176,277.7089,89.2752,270.8351,6.381e-05,7.28e-06,0.0,0 STARLINK-3759,1 52299U 22041AQ  23162.59256270  .00000728  00000-0  63810-4 0  9995,2 52299  53.2176 277.7089 0000968  89.2752 270.8351 15.08842463 63229,6917.873,95.437,540.408,539.068,0.0
52299.0,STARLINK-3759,PAYLOAD,2023-06-12 14:04:04,15.08845267,0.0001022,53.2169,273.2483,87.0961,273.0148,8.9409e-05,1.136e-05,0.0,0 STARLINK-3759,1 52299U 22041AQ  23163.58615834  .00001136  00000-0  89409-4 0  9996,2 52299  53.2169 273.2483 0001022  87.0961 273.0148 15.08845267 63370,6917.864,95.437,540.436,539.022,0.0
52299.0,STARLINK-3759,PAYLOAD,2023-06-13 23:27:09,15.08848851,0.000101,53.2174,267.0016,82.1207,277.9899,0.00010107,1.321e-05,0.0,0 STARLINK-3759,1 52299U 22041AQ  23164.97718890  .00001321  00000-0  10107-3 0  9990,2 52299  53.2174 267.0016 0001010  82.1207 277.9899 15.08848851 64802,6917.853,95.437,540.417,539.02,0.0
52299.0,STARLINK-3759,PAYLOAD,2023-06-14 08:59:29,15.08834057,9.12e-05,53.2178,265.2175,106.2137,253.8955,-6.3603e-05,-1.3e-05,0.0,0 STARLINK-3759,1 52299U 22041AQ  23165.37464441 -.00001300  00000-0 -63603-4 0  9994,2 52299  53.2178 265.2175 0000912 106.2137 253.8955 15.08834057 64867,6917.899,95.438,540.394,539.133,0.0
52299.0,STARLINK-3759,PAYLOAD,2023-06-15 10:25:39,15.08837867,8.39e-05,53.2168,260.4637,109.3881,250.7202,-0.00012881,-2.337e-05,0.0,0 STARLINK-3759,1 52299U 22041AQ  23166.43448836 -.00002337  00000-0 -12881-3 0  9994,2 52299  53.2168 260.4637 0000839 109.3881 250.7202 15.08837867 65026,6917.887,95.438,540.332,539.171,0.0
52299.0,STARLINK-3759,PAYLOAD,2023-06-15 13:36:25,15.08843043,0.0001047,53.2161,259.87,124.026,236.0832,-0.00011188,-2.068e-05,0.0,0 STARLINK-3759,1 52299U 22041AQ  23166.56696467 -.00002068  00000-0 -11188-3 0  9993,2 52299  53.2161 259.8700 0001047 124.0260 236.0832 15.08843043 63824,6917.871,95.437,540.46,539.012,0.0
52299.0,STARLINK-3759,PAYLOAD,2023-06-16 11:51:48,15.08850543,0.0001119,53.2167,255.7043,106.9768,253.1347,0.00022077,3.228e-05,0.0,0 STARLINK-3759,1 52299U 22041AQ  23167.49431593  .00003228  00000-0  22077-3 0  9999,2 52299  53.2167 255.7043 0001119 106.9768 253.1347 15.08850543 63966,6917.848,95.437,540.487,538.939,0.0
52299.0,STARLINK-3759,PAYLOAD,2023-06-16 15:02:35,15.08857297,9.44e-05,53.2161,255.1094,87.792,272.318,0.00048861,7.501e-05,0.0,0 STARLINK-3759,1 52299U 22041AQ  23167.62679734  .00007501  00000-0  48861-3 0  9992,2 52299  53.2161 255.1094 0000944  87.7920 272.3180 15.08857297 65201,6917.828,95.436,540.346,539.039,0.0
52299.0,STARLINK-3759,PAYLOAD,2023-06-16 22:59:31,15.08841134,0.0001201,53.2159,253.6228,91.6282,268.4848,0.00022053,3.224e-05,0.0,0 STARLINK-3759,1 52299U 22041AQ  23167.95800659  .00003224  00000-0  22053-3 0  9993,2 52299  53.2159 253.6228 0001201  91.6282 268.4848 15.08841134 65257,6917.877,95.437,540.573,538.911,0.0
52299.0,STARLINK-3759,PAYLOAD,2023-06-17 11:42:36,15.08849801,0.0001018,53.2157,251.2439,93.9524,266.1585,0.00023397,3.439e-05,0.0,0 STARLINK-3759,1 52299U 22041AQ  23168.48792132  .00003439  00000-0  23397-3 0  9998,2 52299  53.2157 251.2439 0001018  93.9524 266.1585 15.08849801 64119,6917.85,95.437,540.42,539.011,0.0
